start=new Date('2022-07-17T00:00:00.000Z').valueOf();
sats=[{"ELEMENT_SET_NO":"999","MEAN_MOTION_DDOT":"0.0000000000000","FILE":"3515618","DECAY_DATE":null,"TLE_LINE1":"1 51893U 22022AT  22197.91667824  .00048070  00000-0  30206-2 0  9990","NORAD_CAT_ID":"51893","COUNTRY_CODE":"US","RA_OF_ASC_NODE":"217.6642","ECCENTRICITY":"0.00016750","ARG_OF_PERICENTER":"55.0426","TLE_LINE2":"2 51893  53.2156 217.6642 0001675  55.0426 320.3095 15.08807133  1301","MEAN_ELEMENT_THEORY":"SGP4","TIME_SYSTEM":"UTC","LAUNCH_DATE":"2022-03-03","REF_FRAME":"TEME","SITE":"AFETR","INCLINATION":"53.2156","CENTER_NAME":"EARTH","OBJECT_TYPE":"PAYLOAD","BSTAR":"0.00302060000000","EPHEMERIS_TYPE":"0","APOAPSIS":"541.005","OBJECT_NAME":"STARLINK-3579","PERIAPSIS":"538.687","OBJECT_ID":"2022-022AT","PERIOD":"95.440","CLASSIFICATION_TYPE":"U","MEAN_MOTION":"15.08807133","EPOCH":"2022-07-16T22:00:00.999936","SEMIMAJOR_AXIS":"6917.981","GP_ID":"208272925","MEAN_ANOMALY":"320.3095","MEAN_MOTION_DOT":"0.00048070","REV_AT_EPOCH":"130","RCS_SIZE":"LARGE"},{"MEAN_ELEMENT_THEORY":"SGP4","TLE_LINE2":"2 51894  53.2163 217.6661 0001679  43.9805 311.4124 15.08807903  1301","LAUNCH_DATE":"2022-03-03","TIME_SYSTEM":"UTC","COUNTRY_CODE":"US","ARG_OF_PERICENTER":"43.9805","RA_OF_ASC_NODE":"217.6661","ECCENTRICITY":"0.00016790","TLE_LINE1":"1 51894U 22022AU  22197.91667824  .00048704  00000-0  30599-2 0  9990","DECAY_DATE":null,"NORAD_CAT_ID":"51894","ELEMENT_SET_NO":"999","FILE":"3515618","MEAN_MOTION_DDOT":"0.0000000000000","GP_ID":"208271683","SEMIMAJOR_AXIS":"6917.978","EPOCH":"2022-07-16T22:00:00.999936","RCS_SIZE":"LARGE","REV_AT_EPOCH":"130","MEAN_ANOMALY":"311.4124","MEAN_MOTION_DOT":"0.00048704","PERIAPSIS":"538.682","OBJECT_NAME":"STARLINK-3595","MEAN_MOTION":"15.08807903","CLASSIFICATION_TYPE":"U","OBJECT_ID":"2022-022AU","PERIOD":"95.440","OBJECT_TYPE":"PAYLOAD","APOAPSIS":"541.005","EPHEMERIS_TYPE":"0","BSTAR":"0.00305990000000","REF_FRAME":"TEME","CENTER_NAME":"EARTH","INCLINATION":"53.2163","SITE":"AFETR"},{"FILE":"3515618","MEAN_MOTION_DDOT":"0.0000000000000","ELEMENT_SET_NO":"999","NORAD_CAT_ID":"51895","TLE_LINE1":"1 51895U 22022AV  22197.91667824  .00033284  00000-0  21000-2 0  9995","DECAY_DATE":null,"ARG_OF_PERICENTER":"50.9028","ECCENTRICITY":"0.00019040","RA_OF_ASC_NODE":"217.6644","COUNTRY_CODE":"US","LAUNCH_DATE":"2022-03-03","TIME_SYSTEM":"UTC","MEAN_ELEMENT_THEORY":"SGP4","TLE_LINE2":"2 51895  53.2152 217.6644 0001904  50.9028 344.4625 15.08830818  1300","SITE":"AFETR","CENTER_NAME":"EARTH","INCLINATION":"53.2152","REF_FRAME":"TEME","APOAPSIS":"541.091","EPHEMERIS_TYPE":"0","BSTAR":"0.00210000000000","OBJECT_TYPE":"PAYLOAD","OBJECT_ID":"2022-022AV","PERIOD":"95.438","MEAN_MOTION":"15.08830818","CLASSIFICATION_TYPE":"U","OBJECT_NAME":"STARLINK-3594","PERIAPSIS":"538.456","REV_AT_EPOCH":"130","RCS_SIZE":"LARGE","MEAN_ANOMALY":"344.4625","MEAN_MOTION_DOT":"0.00033284","SEMIMAJOR_AXIS":"6917.908","EPOCH":"2022-07-16T22:00:00.999936","GP_ID":"208272433"},{"MEAN_ELEMENT_THEORY":"SGP4","TLE_LINE2":"2 51896  53.2148 217.6640 0001806  47.6187 342.5336 15.08825448  1303","LAUNCH_DATE":"2022-03-03","TIME_SYSTEM":"UTC","COUNTRY_CODE":"US","ARG_OF_PERICENTER":"47.6187","RA_OF_ASC_NODE":"217.6640","ECCENTRICITY":"0.00018060","TLE_LINE1":"1 51896U 22022AW  22197.91667824  .00046919  00000-0  29477-2 0  9991","DECAY_DATE":null,"NORAD_CAT_ID":"51896","ELEMENT_SET_NO":"999","FILE":"3515618","MEAN_MOTION_DDOT":"0.0000000000000","GP_ID":"208272685","SEMIMAJOR_AXIS":"6917.925","EPOCH":"2022-07-16T22:00:00.999936","REV_AT_EPOCH":"130","RCS_SIZE":"LARGE","MEAN_ANOMALY":"342.5336","MEAN_MOTION_DOT":"0.00046919","PERIAPSIS":"538.540","OBJECT_NAME":"STARLINK-3593","MEAN_MOTION":"15.08825448","CLASSIFICATION_TYPE":"U","OBJECT_ID":"2022-022AW","PERIOD":"95.438","OBJECT_TYPE":"PAYLOAD","APOAPSIS":"541.039","BSTAR":"0.00294770000000","EPHEMERIS_TYPE":"0","REF_FRAME":"TEME","INCLINATION":"53.2148","CENTER_NAME":"EARTH","SITE":"AFETR"},{"COUNTRY_CODE":"US","ARG_OF_PERICENTER":"60.2740","RA_OF_ASC_NODE":"217.6648","ECCENTRICITY":"0.00013710","MEAN_ELEMENT_THEORY":"SGP4","TLE_LINE2":"2 51897  53.2161 217.6648 0001371  60.2740 355.0940 15.08807050  1309","LAUNCH_DATE":"2022-03-03","TIME_SYSTEM":"UTC","ELEMENT_SET_NO":"999","FILE":"3515618","MEAN_MOTION_DDOT":"0.0000000000000","TLE_LINE1":"1 51897U 22022AX  22197.91667824  .00045807  00000-0  28802-2 0  9998","DECAY_DATE":null,"NORAD_CAT_ID":"51897","OBJECT_NAME":"STARLINK-3598","PERIAPSIS":"538.898","OBJECT_ID":"2022-022AX","PERIOD":"95.440","MEAN_MOTION":"15.08807050","CLASSIFICATION_TYPE":"U","SEMIMAJOR_AXIS":"6917.981","EPOCH":"2022-07-16T22:00:00.999936","GP_ID":"208273425","RCS_SIZE":"LARGE","REV_AT_EPOCH":"130","MEAN_MOTION_DOT":"0.00045807","MEAN_ANOMALY":"355.0940","REF_FRAME":"TEME","SITE":"AFETR","INCLINATION":"53.2161","CENTER_NAME":"EARTH","OBJECT_TYPE":"PAYLOAD","APOAPSIS":"540.795","BSTAR":"0.00288020000000","EPHEMERIS_TYPE":"0"},{"EPOCH":"2022-07-16T22:00:00.999936","SEMIMAJOR_AXIS":"6917.548","GP_ID":"208272183","MEAN_MOTION_DOT":"-0.00129112","MEAN_ANOMALY":"14.0143","RCS_SIZE":"LARGE","REV_AT_EPOCH":"130","OBJECT_NAME":"STARLINK-3597","PERIAPSIS":"538.388","OBJECT_ID":"2022-022AY","PERIOD":"95.431","CLASSIFICATION_TYPE":"U","MEAN_MOTION":"15.08948842","OBJECT_TYPE":"PAYLOAD","BSTAR":"-0.00821710000000","EPHEMERIS_TYPE":"0","APOAPSIS":"540.438","REF_FRAME":"TEME","SITE":"AFETR","CENTER_NAME":"EARTH","INCLINATION":"53.2170","TLE_LINE2":"2 51898  53.2170 217.6717 0001482  61.2237  14.0143 15.08948842  1304","MEAN_ELEMENT_THEORY":"SGP4","TIME_SYSTEM":"UTC","LAUNCH_DATE":"2022-03-03","COUNTRY_CODE":"US","ECCENTRICITY":"0.00014820","RA_OF_ASC_NODE":"217.6717","ARG_OF_PERICENTER":"61.2237","DECAY_DATE":null,"TLE_LINE1":"1 51898U 22022AY  22197.91667824 -.00129112  00000-0 -82171-2 0  9992","NORAD_CAT_ID":"51898","ELEMENT_SET_NO":"999","MEAN_MOTION_DDOT":"0.0000000000000","FILE":"3515618"},{"RA_OF_ASC_NODE":"247.6852","ECCENTRICITY":"0.00017940","ARG_OF_PERICENTER":"49.6738","COUNTRY_CODE":"US","TIME_SYSTEM":"UTC","LAUNCH_DATE":"2022-03-09","TLE_LINE2":"2 51956  53.2139 247.6852 0001794  49.6738 260.6912 15.08849059  1302","MEAN_ELEMENT_THEORY":"SGP4","MEAN_MOTION_DDOT":"0.0000000000000","FILE":"3515618","ELEMENT_SET_NO":"999","NORAD_CAT_ID":"51956","DECAY_DATE":null,"TLE_LINE1":"1 51956U 22025A   22197.91667824  .00000450  00000-0  46347-4 0  9998","PERIOD":"95.437","OBJECT_ID":"2022-025A","CLASSIFICATION_TYPE":"U","MEAN_MOTION":"15.08849059","OBJECT_NAME":"STARLINK-3700","PERIAPSIS":"538.477","MEAN_MOTION_DOT":"0.00000450","MEAN_ANOMALY":"260.6912","REV_AT_EPOCH":"130","RCS_SIZE":"LARGE","EPOCH":"2022-07-16T22:00:00.999936","SEMIMAJOR_AXIS":"6917.853","GP_ID":"208271937","SITE":"AFETR","INCLINATION":"53.2139","CENTER_NAME":"EARTH","REF_FRAME":"TEME","EPHEMERIS_TYPE":"0","BSTAR":"0.00004634700000","APOAPSIS":"540.959","OBJECT_TYPE":"PAYLOAD"},{"CLASSIFICATION_TYPE":"U","MEAN_MOTION":"15.08853177","PERIOD":"95.437","OBJECT_ID":"2022-025B","PERIAPSIS":"538.599","OBJECT_NAME":"STARLINK-3694","MEAN_MOTION_DOT":"-0.00018973","MEAN_ANOMALY":"1.0913","REV_AT_EPOCH":"130","RCS_SIZE":"LARGE","GP_ID":"208273188","EPOCH":"2022-07-16T22:00:00.999936","SEMIMAJOR_AXIS":"6917.840","INCLINATION":"53.2131","CENTER_NAME":"EARTH","SITE":"AFETR","REF_FRAME":"TEME","EPHEMERIS_TYPE":"0","BSTAR":"-0.00117670000000","APOAPSIS":"540.811","OBJECT_TYPE":"PAYLOAD","ECCENTRICITY":"0.00015990","RA_OF_ASC_NODE":"247.6773","ARG_OF_PERICENTER":"49.2215","COUNTRY_CODE":"US","TIME_SYSTEM":"UTC","LAUNCH_DATE":"2022-03-09","TLE_LINE2":"2 51957  53.2131 247.6773 0001599  49.2215   1.0913 15.08853177  1300","MEAN_ELEMENT_THEORY":"SGP4","MEAN_MOTION_DDOT":"0.0000000000000","FILE":"3515618","ELEMENT_SET_NO":"999","NORAD_CAT_ID":"51957","DECAY_DATE":null,"TLE_LINE1":"1 51957U 22025B   22197.91667824 -.00018973  00000-0 -11767-2 0  9996"},{"PERIOD":"95.437","OBJECT_ID":"2022-025C","CLASSIFICATION_TYPE":"U","MEAN_MOTION":"15.08844225","OBJECT_NAME":"STARLINK-3692","PERIAPSIS":"538.410","MEAN_ANOMALY":"289.8731","MEAN_MOTION_DOT":"-0.00002620","REV_AT_EPOCH":"130","RCS_SIZE":"LARGE","EPOCH":"2022-07-16T22:00:00.999936","SEMIMAJOR_AXIS":"6917.867","GP_ID":"208272929","SITE":"AFETR","CENTER_NAME":"EARTH","INCLINATION":"53.2150","REF_FRAME":"TEME","BSTAR":"-0.00014655000000","EPHEMERIS_TYPE":"0","APOAPSIS":"541.054","OBJECT_TYPE":"PAYLOAD","RA_OF_ASC_NODE":"247.6903","ECCENTRICITY":"0.00019110","ARG_OF_PERICENTER":"40.4358","COUNTRY_CODE":"US","TIME_SYSTEM":"UTC","LAUNCH_DATE":"2022-03-09","TLE_LINE2":"2 51958  53.2150 247.6903 0001911  40.4358 289.8731 15.08844225  1304","MEAN_ELEMENT_THEORY":"SGP4","MEAN_MOTION_DDOT":"0.0000000000000","FILE":"3515618","ELEMENT_SET_NO":"999","NORAD_CAT_ID":"51958","DECAY_DATE":null,"TLE_LINE1":"1 51958U 22025C   22197.91667824 -.00002620  00000-0 -14655-3 0  9999"},{"NORAD_CAT_ID":"51959","TLE_LINE1":"1 51959U 22025D   22197.91667824 -.00001757  00000-0 -92240-4 0  9997","DECAY_DATE":null,"FILE":"3515618","MEAN_MOTION_DDOT":"0.0000000000000","ELEMENT_SET_NO":"999","LAUNCH_DATE":"2022-03-09","TIME_SYSTEM":"UTC","MEAN_ELEMENT_THEORY":"SGP4","TLE_LINE2":"2 51959  53.2139 247.6813 0001804  37.5799 352.7295 15.08858531  1309","ARG_OF_PERICENTER":"37.5799","RA_OF_ASC_NODE":"247.6813","ECCENTRICITY":"0.00018040","COUNTRY_CODE":"US","APOAPSIS":"540.937","BSTAR":"-0.00009224000000","EPHEMERIS_TYPE":"0","OBJECT_TYPE":"PAYLOAD","SITE":"AFETR","CENTER_NAME":"EARTH","INCLINATION":"53.2139","REF_FRAME":"TEME","RCS_SIZE":"LARGE","REV_AT_EPOCH":"130","MEAN_ANOMALY":"352.7295","MEAN_MOTION_DOT":"-0.00001757","SEMIMAJOR_AXIS":"6917.824","EPOCH":"2022-07-16T22:00:00.999936","GP_ID":"208271687","PERIOD":"95.436","OBJECT_ID":"2022-025D","MEAN_MOTION":"15.08858531","CLASSIFICATION_TYPE":"U","OBJECT_NAME":"STARLINK-3704","PERIAPSIS":"538.441"}];
